[
    {
        "Altitude(m)": 611967.1995024638,
        "Argument of Periapsis(deg)": 0.0,
        "Eccentricity": 0.0,
        "Inclination(deg)": 60.0,
        "Latitude(deg)": 59.14022393016103,
        "Longitude(deg)": 46.09193321635436,
        "Mean Anomaly(deg)": 98.18179999999998,
        "RAAN(deg)": 40.0,
        "Satellite Name": "Test1 182",
        "Satellite Number": 182,
        "Semi-Major Axis(m)": 6980739.136638005,
        "Time(s)": 0
    },
    {
        "Altitude(m)": 611934.3999041785,
        "Argument of Periapsis(deg)": 0.00010418945913296404,
        "Eccentricity": 0.0,
        "Inclination(deg)": 60.0,
        "Latitude(deg)": 58.986587567288716,
        "Longitude(deg)": 47.215181753079975,
        "Mean Anomaly(deg)": 98.80190614546183,
        "RAAN(deg)": 39.99957995086026,
        "Satellite Name": "Test1 182",
        "Satellite Number": 182,
        "Semi-Major Axis(m)": 6980739.136638005,
        "Time(s)": 10
    }
]